NORAD_CAT_ID,OBJECT_NAME,OBJECT_TYPE,EPOCH,MEAN_MOTION,ECCENTRICITY,INCLINATION,RA_OF_ASC_NODE,ARG_OF_PERICENTER,MEAN_ANOMALY,BSTAR,MEAN_MOTION_DOT,MEAN_MOTION_DDOT,TLE_LINE0,TLE_LINE1,TLE_LINE2,SEMIMAJOR_AXIS,PERIOD,APOGEE,PERIGEE,DECAYED
51805.0,STARLINK-3605,PAYLOAD,2022-07-15 14:00:01,15.08860881,0.0002186,53.2139,193.6648,48.3129,205.6741,-0.0014891,-0.00023923,0.0,0 STARLINK-3605,1 51805U 22017AP  22196.58334491 -.00023923  00000-0 -14891-2 0  9994,2 51805  53.2139 193.6648 0002186  48.3129 205.6741 15.08860881 22986,6917.816999999999,95.436,541.194,538.169,0.0
51805.0,STARLINK-3605,PAYLOAD,2022-07-15 22:00:00,15.08838736,0.0002032,53.2143,192.1668,52.9658,212.6386,-0.00027181,-4.611e-05,0.0,0 STARLINK-3605,1 51805U 22017AP  22196.91667824 -.00004611  00000-0 -27181-3 0  9990,2 51805  53.2143 192.1668 0002032  52.9658 212.6386 15.08838736  1305,6917.884,95.438,541.155,538.344,0.0
51805.0,STARLINK-3605,PAYLOAD,2022-07-16 14:00:01,15.0884821,0.0002146,53.2146,189.1754,47.8842,240.8921,-0.0018399,-0.00029458,0.0,0 STARLINK-3605,1 51805U 22017AP  22197.58334491 -.00029458  00000-0 -18399-2 0  9991,2 51805  53.2146 189.1754 0002146  47.8842 240.8921 15.08848210 23135,6917.855,95.437,541.205,538.236,0.0
51805.0,STARLINK-3605,PAYLOAD,2022-07-16 22:00:00,15.08822058,0.0002029,53.215,187.6776,54.1105,246.2656,0.0024789,0.00039365,0.0,0 STARLINK-3605,1 51805U 22017AP  22197.91667824  .00039365  00000-0  24789-2 0  9993,2 51805  53.2150 187.6776 0002029  54.1105 246.2656 15.08822058  1302,6917.935,95.439,541.2040000000002,538.3969999999998,0.0
51805.0,STARLINK-3605,PAYLOAD,2022-07-17 06:00:00,15.08845075,0.0002197,53.2151,186.1829,50.4168,261.5519,-0.00055778,-9.156e-05,0.0,0 STARLINK-3605,1 51805U 22017AP  22198.25001157 -.00009156  00000-0 -55778-3 0  9992,2 51805  53.2151 186.1829 0002197  50.4168 261.5519 15.08845075 23249,6917.865,95.437,541.25,538.21,0.0
51805.0,STARLINK-3605,PAYLOAD,2022-07-17 14:00:01,15.0887605,0.0002105,53.2149,184.6861,49.0763,274.4853,-0.0045184,-0.00071558,0.0,0 STARLINK-3605,1 51805U 22017AP  22198.58334491 -.00071558  00000-0 -45184-2 0  9992,2 51805  53.2149 184.6861 0002105  49.0763 274.4853 15.08876050  1303,6917.77,95.435,541.091,538.179,0.0
51805.0,STARLINK-3605,PAYLOAD,2022-07-17 22:00:00,15.08838521,0.0001886,53.216,183.1868,53.7312,281.4398,-0.0023389,-0.00037318,0.0,0 STARLINK-3605,1 51805U 22017AP  22198.91667824 -.00037318  00000-0 -23389-2 0  9997,2 51805  53.2160 183.1868 0001886  53.7312 281.4398 15.08838521  1307,6917.885,95.438,541.055,538.445,0.0
51805.0,STARLINK-3605,PAYLOAD,2022-07-18 14:00:01,15.08846989,0.0002064,53.2147,180.197,50.3125,308.0122,-0.0021776,-0.00034785,0.0,0 STARLINK-3605,1 51805U 22017AP  22199.58334491 -.00034785  00000-0 -21776-2 0  9995,2 51805  53.2147 180.1970 0002064  50.3125 308.0122 15.08846989 23444,6917.859,95.437,541.1519999999998,538.2959999999998,0.0
51805.0,STARLINK-3605,PAYLOAD,2022-07-18 22:00:00,15.0882262,0.0001971,53.2149,178.6997,56.7466,313.1682,0.0019661,0.00031127,0.0,0 STARLINK-3605,1 51805U 22017AP  22199.91667824  .00031127  00000-0  19661-2 0  9996,2 51805  53.2149 178.6997 0001971  56.7466 313.1682 15.08822620  1306,6917.934,95.439,541.1619999999998,538.435,0.0
51805.0,STARLINK-3605,PAYLOAD,2022-07-19 06:00:00,15.08838358,0.0002148,53.2147,177.2051,52.4974,329.0126,-0.00014923,-2.662e-05,0.0,0 STARLINK-3605,1 51805U 22017AP  22200.25001157 -.00002662  00000-0 -14923-3 0  9998,2 51805  53.2147 177.2051 0002148  52.4974 329.0126 15.08838358 23548,6917.885,95.438,541.236,538.264,0.0
51805.0,STARLINK-3605,PAYLOAD,2022-07-19 14:00:01,15.08862308,0.0002074,53.2143,175.7079,52.7182,340.3855,-0.0019077,-0.0003054,0.0,0 STARLINK-3605,1 51805U 22017AP  22200.58334491 -.00030540  00000-0 -19077-2 0  9994,2 51805  53.2143 175.7079 0002074  52.7182 340.3855 15.08862308  1306,6917.812,95.436,541.112,538.242,0.0
51805.0,STARLINK-3605,PAYLOAD,2022-07-19 22:00:00,15.08918348,0.0001969,53.2157,174.2083,55.0861,349.6132,-0.013357,-0.00207262,0.0,0 STARLINK-3605,1 51805U 22017AP  22200.91667824 -.00207262  00000-0 -13357-1 0  9991,2 51805  53.2157 174.2083 0001969  55.0861 349.6132 15.08918348  1308,6917.641,95.433,540.868,538.144,0.0
51805.0,STARLINK-3605,PAYLOAD,2022-07-20 14:00:01,15.08856775,0.0001996999999999,53.214,171.2186,52.1779,15.718,-0.0018221,-0.00029184,0.0,0 STARLINK-3605,1 51805U 22017AP  22201.58334491 -.00029184  00000-0 -18221-2 0  9997,2 51805  53.2140 171.2186 0001997  52.1779  15.7180 15.08856775 23749,6917.829000000002,95.436,541.076,538.313,0.0
51805.0,STARLINK-3605,PAYLOAD,2022-07-20 22:00:01,15.08840678,0.0001919,53.214,169.7213,56.8425,22.7151,-0.00093426,-0.00015127,0.0,0 STARLINK-3605,1 51805U 22017AP  22201.91668981 -.00015127  00000-0 -93426-3 0  9991,2 51805  53.2140 169.7213 0001919  56.8425  22.7151 15.08840678  1304,6917.878000000002,95.438,541.071,538.4159999999998,0.0
51805.0,STARLINK-3605,PAYLOAD,2022-07-21 14:00:01,15.08840964,0.0001992,53.2139,166.7292,51.7153,51.0014,-0.0017012999999999,-0.00027264,0.0,0 STARLINK-3605,1 51805U 22017AP  22202.58335648 -.00027264  00000-0 -17013-2 0  9998,2 51805  53.2139 166.7292 0001992  51.7153  51.0014 15.08840964 23898,6917.877,95.437,541.12,538.364,0.0
51805.0,STARLINK-3605,PAYLOAD,2022-07-21 22:00:00,15.08835178,0.0001989,53.2141,165.232,56.8513,57.387,0.00091932,0.00014371,0.0,0 STARLINK-3605,1 51805U 22017AP  22202.91667824  .00014371  00000-0  91932-3 0  9995,2 51805  53.2141 165.2320 0001989  56.8513  57.3870 15.08835178  1301,6917.895,95.438,541.136,538.384,0.0
51805.0,STARLINK-3605,PAYLOAD,2022-07-22 06:00:00,15.08832686,0.0002153,53.2141,163.7374,51.7566,74.0848,0.0014532,0.00022911,0.0,0 STARLINK-3605,1 51805U 22017AP  22203.25001157  .00022911  00000-0  14532-2 0  9993,2 51805  53.2141 163.7374 0002153  51.7566  74.0848 15.08832686  1301,6917.903,95.438,541.257,538.278,0.0
51805.0,STARLINK-3605,PAYLOAD,2022-07-22 22:00:00,15.08850989,0.0001973,53.2145,160.7427,56.7931,92.2646,-0.00032604,-5.475e-05,0.0,0 STARLINK-3605,1 51805U 22017AP  22203.91667824 -.00005475  00000-0 -32604-3 0  9994,2 51805  53.2145 160.7427 0001973  56.7931  92.2646 15.08850989  1305,6917.847,95.437,541.077,538.347,0.0
51805.0,STARLINK-3605,PAYLOAD,2022-07-23 14:00:01,15.08828119,0.0001921999999999,53.2146,157.7502,51.0943,121.2134,-0.0011479,-0.00018505,0.0,0 STARLINK-3605,1 51805U 22017AP  22204.58335648 -.00018505  00000-0 -11479-2 0  9998,2 51805  53.2146 157.7502 0001922  51.0943 121.2134 15.08828119  1306,6917.917,95.438,541.111,538.452,0.0
51805.0,STARLINK-3605,PAYLOAD,2022-07-23 22:00:00,15.08837016,0.0001915,53.2149,156.2536,55.7097,128.1108,0.00037893,5.747e-05,0.0,0 STARLINK-3605,1 51805U 22017AP  22204.91667824  .00005747  00000-0  37893-3 0  9990,2 51805  53.2149 156.2536 0001915  55.7097 128.1108 15.08837016  1306,6917.89,95.438,541.0790000000002,538.43,0.0
51805.0,STARLINK-3605,PAYLOAD,2022-07-24 14:00:01,15.08858473,0.0001893,53.2149,153.2609,52.3835,154.6134,-0.003631,-0.00057644,0.0,0 STARLINK-3605,1 51805U 22017AP  22205.58334491 -.00057644  00000-0 -36310-2 0  9992,2 51805  53.2149 153.2609 0001893  52.3835 154.6134 15.08858473  1305,6917.824000000001,95.436,540.998,538.379,0.0
51805.0,STARLINK-3605,PAYLOAD,2022-07-24 22:00:00,15.08830071,0.0001839,53.2152,151.7646,55.3926,163.1945,-0.0001443999999999,-2.585e-05,0.0,0 STARLINK-3605,1 51805U 22017AP  22205.91667824 -.00002585  00000-0 -14440-3 0  9993,2 51805  53.2152 151.7646 0001839  55.3926 163.1945 15.08830071  1306,6917.911,95.438,541.048,538.504,0.0
51805.0,STARLINK-3605,PAYLOAD,2022-07-25 06:00:00,15.08803933,0.0002013,53.2151,150.2697,49.2227,180.9475,0.0024781,0.00039333,0.0,0 STARLINK-3605,1 51805U 22017AP  22206.25001157  .00039333  00000-0  24781-2 0  9999,2 51805  53.2151 150.2697 0002013  49.2227 180.9475 15.08803933 24448,6917.991,95.44,541.248,538.4630000000002,0.0
51805.0,STARLINK-3605,PAYLOAD,2022-07-25 14:00:01,15.0883096,0.0001851,53.2151,148.7718,53.4073,188.3341,-0.00041815,-6.935e-05,0.0,0 STARLINK-3605,1 51805U 22017AP  22206.58334491 -.00006935  00000-0 -41815-3 0  9997,2 51805  53.2151 148.7718 0001851  53.4073 188.3341 15.08830960  1303,6917.908,95.438,541.054,538.493,0.0
51805.0,STARLINK-3605,PAYLOAD,2022-07-25 22:00:00,15.08846014,0.0001855999999999,53.2153,147.2757,57.2633,196.0542,-0.00065917,-0.00010765,0.0,0 STARLINK-3605,1 51805U 22017AP  22206.91667824 -.00010765  00000-0 -65917-3 0  9998,2 51805  53.2153 147.2757 0001856  57.2633 196.0542 15.08846014 24548,6917.861999999999,95.437,541.011,538.443,0.0
51805.0,STARLINK-3605,PAYLOAD,2022-07-26 14:00:01,15.08838672,0.0001875,53.215,144.2829,56.2594,220.2476,0.00010238,1.342e-05,0.0,0 STARLINK-3605,1 51805U 22017AP  22207.58334491  .00001342  00000-0  10238-3 0  9998,2 51805  53.2150 144.2829 0001875  56.2594 220.2476 15.08838672  1304,6917.884,95.438,541.047,538.452,0.0
51805.0,STARLINK-3605,PAYLOAD,2022-07-26 22:00:00,15.08860063,0.0001896999999999,53.2151,142.7868,59.5099,228.5862,-0.0010228,-0.00016538,0.0,0 STARLINK-3605,1 51805U 22017AP  22207.91667824 -.00016538  00000-0 -10228-2 0  9997,2 51805  53.2151 142.7868 0001897  59.5099 228.5862 15.08860063 24697,6917.819,95.436,540.996,538.372,0.0
51805.0,STARLINK-3605,PAYLOAD,2022-07-27 14:00:01,15.08838668,0.0001848,53.215,139.7938,57.3634,253.9597,-0.0011564,-0.00018645,0.0,0 STARLINK-3605,1 51805U 22017AP  22208.58334491 -.00018645  00000-0 -11564-2 0  9997,2 51805  53.2150 139.7938 0001848  57.3634 253.9597 15.08838668  1303,6917.884,95.438,541.028,538.471,0.0
51805.0,STARLINK-3605,PAYLOAD,2022-07-27 22:00:00,15.08847522,0.0001869,53.2151,138.2979,58.857,264.0481,-0.0012024,-0.00019378,0.0,0 STARLINK-3605,1 51805U 22017AP  22208.91667824 -.00019378  00000-0 -12024-2 0  9999,2 51805  53.2151 138.2979 0001869  58.8570 264.0481 15.08847522  1305,6917.857,95.437,541.015,538.429,0.0
